[{"OBJECT_NAME":"STARLINK-5623","OBJECT_ID":"2023-014Q","EPOCH":"2026-03-09T22:49:44.915520","MEAN_MOTION":14.98331029,"ECCENTRICITY":0.00031573,"INCLINATION":69.9995,"RA_OF_ASC_NODE":63.8374,"ARG_OF_PERICENTER":269.5921,"MEAN_ANOMALY":90.4876,"EPHEMERIS_TYPE":0,"CLASSIFICATION_TYPE":"U","NORAD_CAT_ID":55405,"ELEMENT_SET_NO":999,"REV_AT_EPOCH":17209,"BSTAR":3.3868751e-5,"MEAN_MOTION_DOT":3.11e-6,"MEAN_MOTION_DDOT":0},{"OBJECT_NAME":"CZ-6A DEB","OBJECT_ID":"2024-140XM","EPOCH":"2026-03-08T13:47:27.015936","MEAN_MOTION":14.68389112,"ECCENTRICITY":0.01435049,"INCLINATION":89.0591,"RA_OF_ASC_NODE":285.7653,"ARG_OF_PERICENTER":157.7449,"MEAN_ANOMALY":203.0084,"EPHEMERIS_TYPE":0,"CLASSIFICATION_TYPE":"U","NORAD_CAT_ID":61396,"ELEMENT_SET_NO":999,"REV_AT_EPOCH":7982,"BSTAR":0.00092985645,"MEAN_MOTION_DOT":6.31e-5,"MEAN_MOTION_DDOT":0}]
